IRIDIUM 155             
1 43573U 18061E   22080.80813483  .00000163  00000+0  51110-4 0  9996
2 43573  86.4011 343.7873 0002286  76.1945 283.9505 14.34216132191436
IRIDIUM 154             
1 43574U 18061F   22080.78910327  .00000163  00000+0  50988-4 0  9991
2 43574  86.4015 343.8546 0002155  92.5187 267.6256 14.34218368191473
IRIDIUM 163             
1 43575U 18061G   22081.11891079  .00000138  00000+0  42089-4 0  9997
2 43575  86.4013 343.6796 0001680  87.6161 272.5227 14.34214450191499
IRIDIUM 156             
1 43576U 18061H   22080.81447197  .00000162  00000+0  50762-4 0  9996
2 43576  86.4012 343.8120 0001884  77.9611 282.1796 14.34218235191448
IRIDIUM 164             
1 43577U 18061J   22080.79544566  .00000176  00000+0  55683-4 0  9994
2 43577  86.4014 343.8367 0002013  91.2490 268.8936 14.34214371191481
IRIDIUM 159             
1 43578U 18061K   22080.83350692  .00000164  00000+0  51446-4 0  9995
2 43578  86.4012 343.7901 0002102  90.3793 269.7644 14.34219950191459
IRIDIUM 180             
1 43922U 19002A   22081.04229195  .00000027  00000+0  27298-5 0  9998
2 43922  86.3916 280.5461 0002034 111.2766 248.8647 14.34219505167135
IRIDIUM 176             
1 43923U 19002B   22080.78656064  .00000104  00000+0  12627-4 0  9993
2 43923  86.6051 280.6879 0002412  87.7401 272.4092 14.72248833171439
IRIDIUM 168             
1 43924U 19002C   22080.82663623  .00000022  00000+0  73193-6 0  9994
2 43924  86.3918 280.6700 0002148  96.8252 263.3189 14.34217871167047
IRIDIUM 173             
1 43925U 19002D   22081.09302483  .00000022  00000+0  76294-6 0  9994
2 43925  86.3915 280.5105 0002055  95.5114 264.6316 14.34217820167076
IRIDIUM 169             
1 43926U 19002E   22080.87116029  .00000155  00000+0  44111-4 0  9997
2 43926  86.4213 312.2281 0006307  54.4925 305.6861 14.38605338167626
IRIDIUM 172             
1 43927U 19002F   22081.08669103  .00000027  00000+0  26143-5 0  9992
2 43927  86.3915 280.5164 0002068  98.3962 261.7468 14.34217768167076
IRIDIUM 175             
1 43928U 19002G   22080.64442255  .00000130  00000+0  16766-4 0  9995
2 43928  86.6054 280.5750 0002169  99.2106 260.9357 14.72248646171408
IRIDIUM 171             
1 43929U 19002H   22081.06765216  .00000026  00000+0  23562-5 0  9995
2 43929  86.3925 280.6588 0002170  96.2870 263.8573 14.34218736167064
IRIDIUM 170             
1 43930U 19002J   22081.06461269  .00000129  00000+0  16499-4 0  9992
2 43930  86.6051 280.5771 0002434  91.4066 268.7430 14.72257274171488
IRIDIUM 167             
1 43931U 19002K   22080.64268980  .00000026  00000+0  23538-5 0  9990
2 43931  86.3915 280.7108 0002104 103.9893 256.1537 14.34216547167000
